FENGYUN 1C DEB          
1 30985U 99025BCB 17346.56684208  .00000920  00000-0  52964-3 0  9990
2 30985  99.2245 104.4591 0055224 321.1603 100.3210 14.11124551552189
